*******************************************************************************
Ephemeris / WWW_USER Mon Mar 24 08:17:44 2025 Pasadena, USA      / Horizons    
*******************************************************************************
Target body name: (2018 UG3)                      {source: JPL#15}
Center body name: Earth (399)                     {source: DE441}
Center-site name: Mauna Kea
*******************************************************************************
Start time      : A.D. 2018-Nov-21 03:51:00.0000 UT      
Stop  time      : A.D. 2018-Nov-21 16:24:00.0000 UT      
Step-size       : 1 minutes
*******************************************************************************
Target pole/equ : undefined
Target radii    : undefined                                                    
Center geodetic : 204.5278, 19.8260847, 4.21024   {E-lon(deg),Lat(deg),Alt(km)}
Center cylindric: 204.5278, 6006.35451, 2151.0229 {E-lon(deg),Dxy(km),Dz(km)}
Center pole/equ : ITRF93                          {East-longitude positive}
Center radii    : 6378.137, 6378.137, 6356.752 km {Equator_a, b, pole_c}       
Target primary  : Sun
Vis. interferer : MOON (R_eq= 1737.400) km        {source: DE441}
Rel. light bend : Sun                             {source: DE441}
Rel. lght bnd GM: 1.3271E+11 km^3/s^2                                          
Small-body perts: Yes                             {source: SB441-N16}
Atmos refraction: NO (AIRLESS)
RA format       : HMS
Time format     : CAL 
Calendar mode   : Mixed Julian/Gregorian
RTS-only print  : NO       
EOP file        : eop.250321.p250617                                           
EOP coverage    : DATA-BASED 1962-JAN-20 TO 2025-MAR-21. PREDICTS-> 2025-JUN-16
Units conversion: 1 au= 149597870.700 km, c= 299792.458 km/s, 1 day= 86400.0 s 
Table cut-offs 1: Elevation (-90.0deg=NO ),Airmass (>38.000=NO), Daylight (YES)
Table cut-offs 2: Solar elongation (  0.0,180.0=NO ),Local Hour Angle( 0.0=NO )
Table cut-offs 3: RA/DEC angular rate (     0.0=NO )                           
*******************************************************************************
Initial IAU76/J2000 heliocentric ecliptic osculating elements (au, days, deg.):
  EPOCH=  2458429.5 ! 2018-Nov-07.00 (TDB)         Residual RMS= .46194        
   EC= .4227384440318329   QR= .9585039390071354   TP= 2458393.2526467689      
   OM= 47.27406359171053   W=  314.2704472892426   IN= 6.159551265235018       
  Equivalent ICRF heliocentric cartesian coordinates (au, au/d):
   X= 7.430529944075828E-01  Y= 6.714692173902916E-01  Z= 2.851295671149762E-01
  VX=-1.040372162305418E-02 VY= 1.447630012002514E-02 VZ= 8.505235531163944E-03
Asteroid physical parameters (km, seconds, rotational period in hours):        
   GM= n.a.                RAD= n.a.               ROTPER= n.a.                
   H= 24.5                 G= .150                 B-V= n.a.                   
                           ALBEDO= n.a.            STYP= n.a.                  
*******************************************************************************
 Date__(UT)__HR:MN     R.A._________(ICRF)_________DEC
******************************************************
$$SOE
 2018-Nov-21 14:06  m  03 34 57.800186 +30 45 53.35869
 2018-Nov-21 14:07  m  03 34 57.820807 +30 45 54.41842
 2018-Nov-21 14:08  m  03 34 57.841514 +30 45 55.47777
 2018-Nov-21 14:09  m  03 34 57.862308 +30 45 56.53674
 2018-Nov-21 14:10  m  03 34 57.883189 +30 45 57.59535
 2018-Nov-21 14:11  m  03 34 57.904156 +30 45 58.65358
 2018-Nov-21 14:12  m  03 34 57.925211 +30 45 59.71145
 2018-Nov-21 14:13  m  03 34 57.946353 +30 46 00.76895
 2018-Nov-21 14:14  m  03 34 57.967582 +30 46 01.82609
 2018-Nov-21 14:15  m  03 34 57.988899 +30 46 02.88288
 2018-Nov-21 14:16  m  03 34 58.010304 +30 46 03.93930
 2018-Nov-21 14:17  m  03 34 58.031797 +30 46 04.99538
 2018-Nov-21 14:18  m  03 34 58.053378 +30 46 06.05110
 2018-Nov-21 14:19  m  03 34 58.075048 +30 46 07.10647
 2018-Nov-21 14:20  m  03 34 58.096806 +30 46 08.16150
 2018-Nov-21 14:21  m  03 34 58.118653 +30 46 09.21618
 2018-Nov-21 14:22  m  03 34 58.140589 +30 46 10.27052
 2018-Nov-21 14:23  m  03 34 58.162613 +30 46 11.32453
 2018-Nov-21 14:24  m  03 34 58.184727 +30 46 12.37819
 2018-Nov-21 14:25  m  03 34 58.206930 +30 46 13.43153
 2018-Nov-21 14:26  m  03 34 58.229223 +30 46 14.48453
 2018-Nov-21 14:27  m  03 34 58.251606 +30 46 15.53721
 2018-Nov-21 14:28  m  03 34 58.274078 +30 46 16.58956
 2018-Nov-21 14:29  m  03 34 58.296640 +30 46 17.64159
 2018-Nov-21 14:30  m  03 34 58.319293 +30 46 18.69330
 2018-Nov-21 14:31  m  03 34 58.342036 +30 46 19.74470
 2018-Nov-21 14:32  m  03 34 58.364869 +30 46 20.79578
 2018-Nov-21 14:33  m  03 34 58.387792 +30 46 21.84654
 2018-Nov-21 14:34  m  03 34 58.410807 +30 46 22.89700
 2018-Nov-21 14:35  m  03 34 58.433912 +30 46 23.94716
 2018-Nov-21 14:36  m  03 34 58.457108 +30 46 24.99700
 2018-Nov-21 14:37  m  03 34 58.480396 +30 46 26.04655
 2018-Nov-21 14:38  m  03 34 58.503774 +30 46 27.09580
 2018-Nov-21 14:39  m  03 34 58.527245 +30 46 28.14475
 2018-Nov-21 14:40  m  03 34 58.550806 +30 46 29.19341
 2018-Nov-21 14:41  m  03 34 58.574460 +30 46 30.24178
 2018-Nov-21 14:42  m  03 34 58.598205 +30 46 31.28987
 2018-Nov-21 14:43  m  03 34 58.622042 +30 46 32.33767
 2018-Nov-21 14:44  m  03 34 58.645971 +30 46 33.38518
 2018-Nov-21 14:45  m  03 34 58.669992 +30 46 34.43242
 2018-Nov-21 14:46  m  03 34 58.694106 +30 46 35.47938
 2018-Nov-21 14:47  m  03 34 58.718312 +30 46 36.52606
 2018-Nov-21 14:48  m  03 34 58.742611 +30 46 37.57248
 2018-Nov-21 14:49  m  03 34 58.767002 +30 46 38.61863
 2018-Nov-21 14:50  m  03 34 58.791486 +30 46 39.66451
 2018-Nov-21 14:51  m  03 34 58.816063 +30 46 40.71012
 2018-Nov-21 14:52  m  03 34 58.840733 +30 46 41.75548
 2018-Nov-21 14:53  m  03 34 58.865496 +30 46 42.80058
 2018-Nov-21 14:54  m  03 34 58.890352 +30 46 43.84543
 2018-Nov-21 14:55  m  03 34 58.915302 +30 46 44.89002
 2018-Nov-21 14:56  m  03 34 58.940345 +30 46 45.93436
 2018-Nov-21 14:57  m  03 34 58.965482 +30 46 46.97846
 2018-Nov-21 14:58  m  03 34 58.990712 +30 46 48.02232
 2018-Nov-21 14:59  m  03 34 59.016036 +30 46 49.06593
 2018-Nov-21 15:00  m  03 34 59.041454 +30 46 50.10930
 2018-Nov-21 15:01  m  03 34 59.066966 +30 46 51.15244
 2018-Nov-21 15:02  m  03 34 59.092572 +30 46 52.19535
 2018-Nov-21 15:03  m  03 34 59.118272 +30 46 53.23802
 2018-Nov-21 15:04  m  03 34 59.144066 +30 46 54.28047
 2018-Nov-21 15:05  m  03 34 59.169954 +30 46 55.32270
 2018-Nov-21 15:06  m  03 34 59.195937 +30 46 56.36470
 2018-Nov-21 15:07  m  03 34 59.222014 +30 46 57.40649
 2018-Nov-21 15:08  m  03 34 59.248186 +30 46 58.44805
 2018-Nov-21 15:09  m  03 34 59.274453 +30 46 59.48941
 2018-Nov-21 15:10  m  03 34 59.300814 +30 47 00.53055
 2018-Nov-21 15:11  m  03 34 59.327270 +30 47 01.57149
 2018-Nov-21 15:12  m  03 34 59.353821 +30 47 02.61222
 2018-Nov-21 15:13  m  03 34 59.380466 +30 47 03.65275
 2018-Nov-21 15:14     03 34 59.407207 +30 47 04.69308
 2018-Nov-21 15:15     03 34 59.434043 +30 47 05.73322
 2018-Nov-21 15:16     03 34 59.460974 +30 47 06.77316
 2018-Nov-21 15:17     03 34 59.488000 +30 47 07.81291
 2018-Nov-21 15:18 A   03 34 59.515122 +30 47 08.85247
 2018-Nov-21 15:19 A   03 34 59.542338 +30 47 09.89185
 2018-Nov-21 15:20 A   03 34 59.569651 +30 47 10.93104
 2018-Nov-21 15:21 A   03 34 59.597058 +30 47 11.97005
 2018-Nov-21 15:22 A   03 34 59.624562 +30 47 13.00889
 2018-Nov-21 15:23 A   03 34 59.652160 +30 47 14.04755
 2018-Nov-21 15:24 A   03 34 59.679855 +30 47 15.08605
 2018-Nov-21 15:25 A   03 34 59.707645 +30 47 16.12437
 2018-Nov-21 15:26 A   03 34 59.735530 +30 47 17.16253
 2018-Nov-21 15:27 A   03 34 59.763512 +30 47 18.20052
 2018-Nov-21 15:28 A   03 34 59.791589 +30 47 19.23836
 2018-Nov-21 15:29 A   03 34 59.819763 +30 47 20.27603
 2018-Nov-21 15:30 A   03 34 59.848032 +30 47 21.31356
 2018-Nov-21 15:31 A   03 34 59.876397 +30 47 22.35093
 2018-Nov-21 15:32 A   03 34 59.904858 +30 47 23.38815
 2018-Nov-21 15:33 A   03 34 59.933415 +30 47 24.42523
 2018-Nov-21 15:34 A   03 34 59.962068 +30 47 25.46217
 2018-Nov-21 15:35 A   03 34 59.990817 +30 47 26.49896
 2018-Nov-21 15:36 A   03 35 00.019662 +30 47 27.53562
 2018-Nov-21 15:37 A   03 35 00.048604 +30 47 28.57214
 2018-Nov-21 15:38 A   03 35 00.077641 +30 47 29.60853
 2018-Nov-21 15:39 A   03 35 00.106775 +30 47 30.64479
 2018-Nov-21 15:40 A   03 35 00.136005 +30 47 31.68093
 2018-Nov-21 15:41 A   03 35 00.165331 +30 47 32.71694
 2018-Nov-21 15:42 A   03 35 00.194754 +30 47 33.75283
 2018-Nov-21 15:43 A   03 35 00.224272 +30 47 34.78861
 2018-Nov-21 15:44 N   03 35 00.253888 +30 47 35.82427
 2018-Nov-21 15:45 N   03 35 00.283599 +30 47 36.85981
 2018-Nov-21 15:46 N   03 35 00.313407 +30 47 37.89525
 2018-Nov-21 15:47 N   03 35 00.343311 +30 47 38.93058
 2018-Nov-21 15:48 N   03 35 00.373311 +30 47 39.96581
 2018-Nov-21 15:49 N   03 35 00.403408 +30 47 41.00094
 2018-Nov-21 15:50 N   03 35 00.433601 +30 47 42.03597
 2018-Nov-21 15:51 N   03 35 00.463890 +30 47 43.07091
 2018-Nov-21 15:52 N   03 35 00.494276 +30 47 44.10575
 2018-Nov-21 15:53 N   03 35 00.524758 +30 47 45.14051
 2018-Nov-21 15:54 N   03 35 00.555336 +30 47 46.17517
 2018-Nov-21 15:55 N   03 35 00.586011 +30 47 47.20976
 2018-Nov-21 15:56 N   03 35 00.616782 +30 47 48.24426
 2018-Nov-21 15:57 N   03 35 00.647649 +30 47 49.27869
 2018-Nov-21 15:58 N   03 35 00.678613 +30 47 50.31304
 2018-Nov-21 15:59 N   03 35 00.709673 +30 47 51.34732
 2018-Nov-21 16:00 N   03 35 00.740829 +30 47 52.38152
 2018-Nov-21 16:01 N   03 35 00.772082 +30 47 53.41567
 2018-Nov-21 16:02 N   03 35 00.803431 +30 47 54.44975
 2018-Nov-21 16:03 N   03 35 00.834876 +30 47 55.48376
 2018-Nov-21 16:04 N   03 35 00.866417 +30 47 56.51772
 2018-Nov-21 16:05 N   03 35 00.898054 +30 47 57.55163
 2018-Nov-21 16:06 N   03 35 00.929788 +30 47 58.58548
 2018-Nov-21 16:07 N   03 35 00.961618 +30 47 59.61928
 2018-Nov-21 16:08 N   03 35 00.993543 +30 48 00.65304
